TUMNANOSAT              
1 53464U 98067UD  22263.99436851  .00047796  00000+0  72267-3 0  9991
2 53464  51.6385 221.2530 0004674 279.4709  80.5753 15.54204793  6167
1998-067UE              
1 53767U 98067UE  22263.97775739  .00028738  00000+0  47933-3 0  9993
2 53767  51.6405 221.8934 0003119 327.1399  32.9396 15.51731771  2268
BEAVERCUBE              
1 53768U 98067UF  22264.75192270  .00029869  00000+0  49936-3 0  9995
2 53768  51.6405 218.0637 0001039 356.0234   4.0747 15.51648149  2407
CLICK-A                 
1 53769U 98067UG  22262.94751405  .00039587  00000+0  65641-3 0  9995
2 53769  51.6416 227.0130 0001262 334.9657  25.1271 15.51738242  2118
1998-067UH              
1 53770U 98067UH  22257.21407978  .00055607  00000+0  92093-3 0  9996
2 53770  51.6411 255.4701 0002998 298.2473  61.8214 15.51618817  1229
JAGSAT                  
1 53771U 98067UJ  22256.89180023  .00064812  00000+0  10696-2 0  9995
2 53771  51.6409 257.0684 0003121 301.0078  59.0604 15.51651644  1168
ISS DEB                 
1 53772U 98067UK  22254.25285730  .00041009  00000+0  70752-3 0  9998
2 53772  51.6403 270.1930 0002389 221.1622 138.9187 15.50604324   765
SOYUZ-MS 22             
1 53879U 22116A   22264.60183660 -.00003776  11939-4  00000+0 0  9990
2 53879  51.6300 218.9459 0011950  96.6545  79.2919 16.22803299    07
SL-4 R/B                
1 53880U 22116B   22264.87932056  .01817828  12031-4  55304-3 0  9998
2 53880  51.6547 217.4780 0017916  69.3430 290.9806 16.25599555    53
